NORAD_CAT_ID,OBJECT_NAME,OBJECT_TYPE,EPOCH,MEAN_MOTION,ECCENTRICITY,INCLINATION,RA_OF_ASC_NODE,ARG_OF_PERICENTER,MEAN_ANOMALY,BSTAR,MEAN_MOTION_DOT,MEAN_MOTION_DDOT,TLE_LINE0,TLE_LINE1,TLE_LINE2,SEMIMAJOR_AXIS,PERIOD,APOGEE,PERIGEE,DECAYED
56768.0,STARLINK-6198,PAYLOAD,2023-07-12 16:14:12,15.69926299,0.0003601,69.995,294.098,269.8566,90.2217,9.3183e-06,9.08e-06,0.0,0 STARLINK-6198,1 56768U 23078B   23193.67652953  .00000908  00000-0  93183-5 0  9999,2 56768  69.9950 294.0980 0003601 269.8566  90.2217 15.69926299  6966,6737.245,91.724,361.536,356.684,0.0
56768.0,STARLINK-6198,PAYLOAD,2023-07-13 16:42:14,15.69928376,0.0003285,69.9943,291.2302,266.6003,93.4817,8.8431e-06,8.51e-06,0.0,0 STARLINK-6198,1 56768U 23078B   23194.69599658  .00000851  00000-0  88431-5 0  9991,2 56768  69.9943 291.2302 0003285 266.6003  93.4817 15.69928376  7122,6737.239,91.724,361.317,356.891,0.0
56768.0,STARLINK-6198,PAYLOAD,2023-07-14 09:31:30,15.69921655,0.0003383,69.9954,289.2611,265.6038,94.4771,1.3999e-05,1.471e-05,0.0,0 STARLINK-6198,1 56768U 23078B   23195.39688263  .00001471  00000-0  13999-4 0  9995,2 56768  69.9954 289.2611 0003383 265.6038  94.4771 15.69921655  7235,6737.258,91.724,361.402,356.844,0.0
56768.0,STARLINK-6198,PAYLOAD,2023-07-14 15:38:30,15.69929329,0.0003135,69.9966,288.545,268.72,91.3636,2.1839e-05,2.414e-05,0.0,0 STARLINK-6198,1 56768U 23078B   23195.65174431  .00002414  00000-0  21839-4 0  9991,2 56768  69.9966 288.5450 0003135 268.7200  91.3636 15.69929329  7277,6737.236,91.724,361.213,356.989,0.0
56768.0,STARLINK-6198,PAYLOAD,2023-07-14 23:17:17,15.69914743,0.0002917,69.9961,287.6493,269.0661,91.0201,9.8955e-06,9.77e-06,0.0,0 STARLINK-6198,1 56768U 23078B   23195.97034137  .00000977  00000-0  98955-5 0  9990,2 56768  69.9961 287.6493 0002917 269.0661  91.0201 15.69914743  7326,6737.278,91.725,361.108,357.178,0.0
56768.0,STARLINK-6198,PAYLOAD,2023-07-15 17:38:18,15.69923815,0.0003203,69.9946,285.4969,275.6852,84.3978,3.4237e-06,1.99e-06,0.0,0 STARLINK-6198,1 56768U 23078B   23196.73493752  .00000199  00000-0  34237-5 0  9996,2 56768  69.9946 285.4969 0003203 275.6852  84.3978 15.69923815  7446,6737.252,91.724,361.275,356.959,0.0
56768.0,STARLINK-6198,PAYLOAD,2023-07-16 15:02:49,15.69939348,0.0003812,69.9947,282.9899,270.8392,89.2367,1.5757e-05,1.683e-05,0.0,0 STARLINK-6198,1 56768U 23078B   23197.62695841  .00001683  00000-0  15757-4 0  9992,2 56768  69.9947 282.9899 0003812 270.8392  89.2367 15.69939348  7582,6737.208,91.723,361.641,356.504,0.0
56768.0,STARLINK-6198,PAYLOAD,2023-07-16 22:41:36,15.69917988,0.0003231,69.9956,282.0942,274.2312,85.8515,1.2137e-05,1.246e-05,0.0,0 STARLINK-6198,1 56768U 23078B   23197.94555688  .00001246  00000-0  12137-4 0  9995,2 56768  69.9956 282.0942 0003231 274.2312  85.8515 15.69917988  7636,6737.269,91.725,361.31,356.957,0.0
56768.0,STARLINK-6198,PAYLOAD,2023-07-18 08:20:08,15.69923776,0.0003441,69.9957,278.1525,268.4242,91.6559,-2.203e-07,-2.39e-06,0.0,0 STARLINK-6198,1 56768U 23078B   23199.34732563 -.00000239  00000-0 -22030-6 0  9998,2 56768  69.9957 278.1525 0003441 268.4242  91.6559 15.69923776  7859,6737.252,91.724,361.435,356.799,0.0
56768.0,STARLINK-6198,PAYLOAD,2023-07-18 14:27:09,15.69928684,0.0003096,69.9962,277.4372,263.5735,96.5108,4.5856e-06,3.39e-06,0.0,0 STARLINK-6198,1 56768U 23078B   23199.60218801  .00000339  00000-0  45856-5 0  9990,2 56768  69.9962 277.4372 0003096 263.5735  96.5108 15.69928684  7897,6737.238,91.724,361.189,357.017,0.0
56768.0,STARLINK-6198,PAYLOAD,2023-07-19 16:26:56,15.69921282,0.0003037,69.9975,274.3901,275.04,85.0449,1.0761e-05,1.081e-05,0.0,0 STARLINK-6198,1 56768U 23078B   23200.68537632  .00001081  00000-0  10761-4 0  9998,2 56768  69.9975 274.3901 0003037 275.0400  85.0449 15.69921282  8065,6737.259,91.724,361.17,357.078,0.0
56768.0,STARLINK-6198,PAYLOAD,2023-07-20 16:54:58,15.69930268,0.0002932,69.997,271.526,266.0003,94.0857,1.9462e-05,2.129e-05,0.0,0 STARLINK-6198,1 56768U 23078B   23201.70483867  .00002129  00000-0  19462-4 0  9993,2 56768  69.9970 271.5260 0002932 266.0003  94.0857 15.69930268  8224,6737.234,91.724,361.074,357.123,0.0
56768.0,STARLINK-6198,PAYLOAD,2023-07-21 15:51:15,15.69927962,0.0002872,69.9973,268.8362,274.3925,85.6943,9.3008e-06,9.06e-06,0.0,0 STARLINK-6198,1 56768U 23078B   23202.66059112  .00000906  00000-0  93008-5 0  9991,2 56768  69.9973 268.8362 0002872 274.3925  85.6943 15.69927962  8372,6737.24,91.724,361.04,357.17,0.0
56768.0,STARLINK-6198,PAYLOAD,2023-07-23 16:47:19,15.69924445,0.0004005,69.9976,263.1059,267.8608,92.2129,-4.5811e-06,-7.64e-06,0.0,0 STARLINK-6198,1 56768U 23078B   23204.69952729 -.00000764  00000-0 -45811-5 0  9995,2 56768  69.9976 263.1059 0004005 267.8608  92.2129 15.69924445  8431,6737.25,91.724,361.813,356.417,0.0
56768.0,STARLINK-6198,PAYLOAD,2023-07-25 11:36:22,15.69928443,0.0003102,69.9969,258.087,275.6472,84.437,1.612e-05,1.726e-05,0.0,0 STARLINK-6198,1 56768U 23078B   23206.48359574  .00001726  00000-0  16120-4 0  9990,2 56768  69.9969 258.0870 0003102 275.6472  84.4370 15.69928443  8714,6737.239,91.724,361.194,357.014,0.0
56768.0,STARLINK-6198,PAYLOAD,2023-07-26 05:57:24,15.69934854,0.0003928,69.9957,255.9389,277.4068,82.6681,2.586e-06,9.8e-07,0.0,0 STARLINK-6198,1 56768U 23078B   23207.24819859  .00000098  00000-0  25860-5 0  9995,2 56768  69.9957 255.9389 0003928 277.4068  82.6681 15.69934854  8830,6737.22,91.724,361.732,356.439,0.0
56768.0,STARLINK-6198,PAYLOAD,2023-07-26 15:07:54,15.69936031,0.0003405,69.9973,254.8607,284.5834,75.4984,9.9193e-06,9.81e-06,0.0,0 STARLINK-6198,1 56768U 23078B   23207.63049411  .00000981  00000-0  99193-5 0  9998,2 56768  69.9973 254.8607 0003405 284.5834  75.4984 15.69936031  8890,6737.217,91.723,361.376,356.788,0.0
56768.0,STARLINK-6198,PAYLOAD,2023-07-27 09:28:57,15.6992084,0.0003473,69.9961,252.7122,275.598,84.482,-9.5984e-06,-1.367e-05,0.0,0 STARLINK-6198,1 56768U 23078B   23208.39510586 -.00001367  00000-0 -95984-5 0  9993,2 56768  69.9961 252.7122 0003473 275.5980  84.4820 15.69920840  9276,6737.26,91.724,361.465,356.786,0.0
56768.0,STARLINK-6198,PAYLOAD,2023-07-27 15:35:57,15.69925232,0.00033,69.9958,251.9967,273.3868,86.695,-4.7289e-06,-7.81e-06,0.0,0 STARLINK-6198,1 56768U 23078B   23208.64996925 -.00000781  00000-0 -47289-5 0  9990,2 56768  69.9958 251.9967 0003300 273.3868  86.6950 15.69925232  9054,6737.248,91.724,361.336,356.89,0.0
56768.0,STARLINK-6198,PAYLOAD,2023-07-28 05:21:43,15.69927951,0.0003176,69.9965,250.3849,269.3117,90.7715,2.6398e-06,1.05e-06,0.0,0 STARLINK-6198,1 56768U 23078B   23209.22341804  .00000105  00000-0  26398-5 0  9991,2 56768  69.9965 250.3849 0003176 269.3117  90.7715 15.69927951  9142,6737.24,91.724,361.245,356.965,0.0
56768.0,STARLINK-6198,PAYLOAD,2023-07-29 02:46:15,15.69905544,0.0003024,69.9962,247.8763,270.3051,89.7798,6.2318e-05,7.281e-05,0.0,0 STARLINK-6198,1 56768U 23078B   23210.11546032  .00007281  00000-0  62318-4 0  9994,2 56768  69.9962 247.8763 0003024 270.3051  89.7798 15.69905544  9543,6737.304,91.725,361.207,357.132,0.0
56768.0,STARLINK-6198,PAYLOAD,2023-07-29 10:25:00,15.69924627,0.000299,69.9964,246.981,256.9883,103.0979,1.3604e-05,1.423e-05,0.0,0 STARLINK-6198,1 56768U 23078B   23210.43403615  .00001423  00000-0  13604-4 0  9994,2 56768  69.9964 246.9810 0002990 256.9883 103.0979 15.69924627  9591,6737.25,91.724,361.129,357.1,0.0
56768.0,STARLINK-6198,PAYLOAD,2023-07-29 15:00:16,15.69919994,0.0002914,69.996,246.4424,271.7633,88.3229,8.125e-06,7.64e-06,0.0,0 STARLINK-6198,1 56768U 23078B   23210.62519180  .00000764  00000-0  81250-5 0  9990,2 56768  69.9960 246.4424 0002914 271.7633  88.3229 15.69919994  9625,6737.263,91.724,361.091,357.165,0.0
56768.0,STARLINK-6198,PAYLOAD,2023-07-30 10:53:02,15.69929635,0.0003049,69.9957,244.1129,268.7174,91.3672,1.3838e-05,1.452e-05,0.0,0 STARLINK-6198,1 56768U 23078B   23211.45350145  .00001452  00000-0  13838-4 0  9997,2 56768  69.9957 244.1129 0003049 268.7174  91.3672 15.69929635  9757,6737.235,91.724,361.154,357.046,0.0
56768.0,STARLINK-6198,PAYLOAD,2023-07-30 13:56:33,15.6991816,0.0003296,69.995,243.7554,269.0214,91.0604,-2.6313e-06,-5.29e-06,0.0,0 STARLINK-6198,1 56768U 23078B   23211.58094342 -.00000529  00000-0 -26313-5 0  9994,2 56768  69.9950 243.7554 0003296 269.0214  91.0604 15.69918160  9775,6737.268,91.725,361.354,356.913,0.0
56768.0,STARLINK-6198,PAYLOAD,2023-07-31 09:49:19,15.69924718,0.000315,69.996,241.4265,263.141,96.9427,1.2989e-05,1.349e-05,0.0,0 STARLINK-6198,1 56768U 23078B   23212.40925306  .00001349  00000-0  12989-4 0  9991,2 56768  69.9960 241.4265 0003150 263.1410  96.9427 15.69924718  9900,6737.249,91.724,361.237,356.992,0.0
56768.0,STARLINK-6198,PAYLOAD,2023-08-01 02:38:36,15.6991342,0.000315,69.9963,239.4555,268.2513,91.8322,-1.9842e-06,-4.51e-06,0.0,0 STARLINK-6198,1 56768U 23078B   23213.11014776 -.00000451  00000-0 -19842-5 0  9991,2 56768  69.9963 239.4555 0003150 268.2513  91.8322 15.69913420 10012,6737.282,91.725,361.269,357.024,0.0
56768.0,STARLINK-6198,PAYLOAD,2023-08-01 10:17:21,15.6992579,0.0002915,69.9966,238.5599,265.9611,94.1252,6.9711e-06,6.26e-06,0.0,0 STARLINK-6198,1 56768U 23078B   23213.42872268  .00000626  00000-0  69711-5 0  9995,2 56768  69.9966 238.5599 0002915 265.9611  94.1252 15.69925790 10060,6737.246,91.724,361.075,357.147,0.0
56768.0,STARLINK-6198,PAYLOAD,2023-08-02 13:48:53,15.69922108,0.0003315,69.9961,235.3357,264.2764,95.8053,9.1795e-06,8.91e-06,0.0,0 STARLINK-6198,1 56768U 23078B   23214.57562426  .00000891  00000-0  91795-5 0  9995,2 56768  69.9961 235.3357 0003315 264.2764  95.8053 15.69922108 10245,6737.257,91.724,361.355,356.888,0.0
56768.0,STARLINK-6198,PAYLOAD,2023-08-03 12:45:11,15.69913647,0.0003086,69.9966,232.6469,269.1158,90.9684,3.4906e-06,2.07e-06,0.0,0 STARLINK-6198,1 56768U 23078B   23215.53138380  .00000207  00000-0  34906-5 0  9992,2 56768  69.9966 232.6469 0003086 269.1158  90.9684 15.69913647 10390,6737.281,91.725,361.225,357.067,0.0
